0 COSMOS 886 DEB
1 15762U 76126BU  13282.51108167 -.00000029  00000-0  63503-4 0  5403
2 15762 065.6644 311.4827 0740862 106.2635 037.0299 12.57911401119406
0 COSMOS 886 DEB
1 15762U 76126BU  13287.01888485 -.00000010  00000-0  10115-3 0  5423
2 15762 065.6638 302.2742 0740752 104.5371 290.5602 12.57912026119979
0 COSMOS 886 DEB
1 15762U 76126BU  13289.42812672  .00000006  00000-0  13552-3 0  5438
2 15762 065.6640 297.3526 0740719 103.6165 040.7867 12.57912569120275
0 COSMOS 886 DEB
1 15762U 76126BU  13292.11631344  .00000057  00000-0  24196-3 0  5446
2 15762 065.6643 291.8610 0740687 102.5920 334.2154 12.57912763120616
0 COSMOS 886 DEB
1 15762U 76126BU  13294.35123497  .00000101  00000-0  33353-3 0  5455
2 15762 065.6643 287.2955 0740623 101.7381 015.0424 12.57913193120891
